     2.10           N: GPS NAV DATA                         RINEX VERSION / TYPE
teqc  2015Nov6                          20250421 01:55:27UTCPGM / RUN BY / DATE
gfzrnx-2.1.12       FILE PROCESSING     20250424 035306 UTC COMMENT             
Linux2.6.32-279.el6.x86_64|x86_64|gcc|Win64-MinGW64|=       COMMENT             
cnvtToRINEX 3.12.0  SMO                 21-Apr-25 01:55 UTC COMMENT             
----------------------------------------------------------- COMMENT             
    2.5150E-08  1.4900E-08 -1.1920E-07 -5.9600E-08          ION ALPHA           
    1.2900E+05  4.9150E+04 -2.6210E+05  1.9660E+05          ION BETA            
    0.000000000000D+00 6.217248937900D-15   319488     2363 DELTA-UTC: A0,A1,T,W
    18                                                      LEAP SECONDS        
                                                            END OF HEADER
01 25 04 21 00 00  0.0 2.302201464770e-04 1.557509676790e-11 0.000000000000e+00
    5.200000000000e+01 6.268750000000e+01 4.609834875270e-09-7.161148005760e-01
    3.222376108170e-06 4.886294482280e-04 5.070120096210e-06 5.153728965760e+03
    8.640000000000e+04 1.490116119380e-08 2.496376809900e+00-2.421438694000e-08
    9.596586097020e-01 2.811562500000e+02 1.233367053770e-01-8.244629136180e-09
    1.442917246150e-10 1.000000000000e+00 2.363000000000e+03 0.000000000000e+00
    2.000000000000e+00 0.000000000000e+00-9.313225746150e-09 5.640000000000e+02
    8.259600000000e+04 4.000000000000e+00                                      
01 25 04 21 02 00  0.0 2.303319051860e-04 1.557509676790e-11 0.000000000000e+00
    5.300000000000e+01 5.656250000000e+01 4.533045962420e-09 3.349774530410e-01
    2.963468432430e-06 4.890005802740e-04 5.071982741360e-06 5.153729814530e+03
    9.360000000000e+04 7.264316082000e-08 2.496317620230e+00-1.303851604460e-08
    9.596598912180e-01 2.836250000000e+02 1.223911804610e-01-8.189984002850e-09
    1.417916204760e-10 1.000000000000e+00 2.363000000000e+03 0.000000000000e+00
    2.000000000000e+00 0.000000000000e+00-9.313225746150e-09 5.650000000000e+02
    8.641800000000e+04 4.000000000000e+00                                      
02 25 04 20 23 59 44.0-1.894016750160e-04 9.436007530890e-12 0.000000000000e+00
    5.300000000000e+01 6.071875000000e+01 4.506973447820e-09 9.302171580670e-01
    2.885237336160e-06 1.641851360910e-02 5.627050995830e-06 5.153718441010e+03
    8.638400000000e+04 1.359730958940e-07 2.332248361590e+00-3.930181264880e-07
    9.658463377080e-01 2.750000000000e+02-1.000118764700e+00-8.271058808510e-09
    1.185763677530e-10 1.000000000000e+00 2.363000000000e+03 0.000000000000e+00
    2.000000000000e+00 0.000000000000e+00-1.769512891770e-08 5.300000000000e+01
    7.921800000000e+04 4.000000000000e+00                                      
02 25 04 21 02 00  0.0-1.893341541290e-04 9.436007530890e-12 0.000000000000e+00
    6.700000000000e+01 6.246875000000e+01 4.299107646520e-09 1.982676450110e+00
    3.142282366750e-06 1.641865936110e-02 5.310401320460e-06 5.153719314580e+03
    9.360000000000e+04 2.607703208920e-07 2.332191761290e+00 9.685754776000e-08
    9.658483945710e-01 2.777187500000e+02-1.000092879830e+00-7.826040271700e-09
   -5.035924052160e-11 1.000000000000e+00 2.363000000000e+03 0.000000000000e+00
    2.000000000000e+00 0.000000000000e+00-1.769512891770e-08 6.700000000000e+01
    8.641800000000e+04 4.000000000000e+00                                      
04 25 04 21 00 00  0.0 5.565662868320e-04 4.888534022030e-12 0.000000000000e+00
    2.250000000000e+02-9.243750000000e+01 4.337323524080e-09 1.738755072070e-01
   -4.902482032780e-06 3.264632308860e-03 8.214265108110e-06 5.153637918470e+03
    8.640000000000e+04-5.587935447690e-09-1.735043822990e+00 1.862645149230e-08
    9.671757513460e-01 2.205625000000e+02-2.895967341720e+00-7.971403469520e-09
   -3.928735076160e-11 1.000000000000e+00 2.363000000000e+03 0.000000000000e+00
    2.000000000000e+00 0.000000000000e+00-4.656612873080e-09 2.250000000000e+02
    7.921800000000e+04 4.000000000000e+00                                      
04 25 04 21 02 00  0.0 5.566012114290e-04 4.888534022030e-12 0.000000000000e+00
    2.260000000000e+02-8.371875000000e+01 4.397683181160e-09 1.223826199030e+00
   -4.144385457040e-06 3.265598556030e-03 8.488073945050e-06 5.153640298840e+03
    9.360000000000e+04 3.725290298460e-08-1.735101485370e+00 1.676380634310e-08
    9.671754880210e-01 2.176250000000e+02-2.895716982300e+00-7.994975879980e-09
   -7.857470152310e-12 1.000000000000e+00 2.363000000000e+03 0.000000000000e+00
    2.000000000000e+00 0.000000000000e+00-4.656612873080e-09 2.260000000000e+02
    8.641800000000e+04 4.000000000000e+00                                      
07 25 04 21 00 00  0.0-2.227863296870e-05-2.387423592150e-12 0.000000000000e+00
    3.200000000000e+01-1.987500000000e+01 4.567690262630e-09-2.294253514670e+00
   -1.132488250730e-06 1.955853798430e-02 8.629634976390e-06 5.153726751330e+03
    8.640000000000e+04 2.384185791020e-07-7.238573954520e-01-8.381903171540e-08
    9.505145115100e-01 2.034375000000e+02-2.056148314170e+00-7.619960259070e-09
    3.203704875740e-10 1.000000000000e+00 2.363000000000e+03 0.000000000000e+00
    2.000000000000e+00 0.000000000000e+00-1.071020960810e-08 3.200000000000e+01
    8.043600000000e+04 4.000000000000e+00                                      
07 25 04 21 01 59 44.0-2.229586243630e-05-2.387423592150e-12 0.000000000000e+00
    1.000000000000e+00-6.937500000000e+00 4.804128682670e-09-1.246522341680e+00
   -2.440065145490e-07 1.955909456590e-02 8.663162589070e-06 5.153723461150e+03
    9.358400000000e+04 3.427267074580e-07-7.239115468270e-01 4.451721906660e-07
    9.505146109890e-01 2.045625000000e+02-2.056063421030e+00-8.036049019410e-09
    9.571827276460e-11 1.000000000000e+00 2.363000000000e+03 0.000000000000e+00
    2.000000000000e+00 0.000000000000e+00-1.071020960810e-08 1.000000000000e+00
    8.745600000000e+04 4.000000000000e+00                                      
07 25 04 21 02 00  0.0-2.229539677500e-05-2.387423592150e-12 0.000000000000e+00
    3.300000000000e+01-6.937500000000e+00 4.804128682670e-09-1.244188429970e+00
   -2.440065145490e-07 1.955909270330e-02 8.663162589070e-06 5.153723461150e+03
    9.360000000000e+04 3.427267074580e-07-7.239116858050e-01 4.451721906660e-07
    9.505146022110e-01 2.045625000000e+02-2.056063665340e+00-8.036049019410e-09
    9.571827276460e-11 1.000000000000e+00 2.363000000000e+03 0.000000000000e+00
    2.000000000000e+00 0.000000000000e+00-1.071020960810e-08 3.300000000000e+01
    8.641800000000e+04 4.000000000000e+00                                      
08 25 04 21 00 00  0.0 5.109575577080e-04 4.092726157980e-12 0.000000000000e+00
    9.000000000000e+00 5.259375000000e+01 4.714839249120e-09 4.357413953610e-01
    2.805143594740e-06 1.057158503680e-02 7.867813110350e-06 5.153781854630e+03
    8.640000000000e+04 7.264316082000e-08 1.329808216540e+00 1.639127731320e-07
    9.479714712740e-01 2.217187500000e+02 4.503444996390e-01-8.204270312220e-09
   -2.625109346340e-10 1.000000000000e+00 2.363000000000e+03 0.000000000000e+00
    2.000000000000e+00 0.000000000000e+00 4.656612873080e-09 9.000000000000e+00
    7.921800000000e+04 4.000000000000e+00                                      
08 25 04 21 02 00  0.0 5.109873600300e-04 4.092726157980e-12 0.000000000000e+00
    1.000000000000e+01 5.003125000000e+01 4.704838832570e-09 1.485875014850e+00
    2.643093466760e-06 1.057130040140e-02 7.824972271920e-06 5.153781269070e+03
    9.360000000000e+04-6.332993507390e-08 1.329749824160e+00 1.061707735060e-07
    9.479692198430e-01 2.233437500000e+02 4.503270631180e-01-8.158911279980e-09
   -3.478716331070e-10 1.000000000000e+00 2.363000000000e+03 0.000000000000e+00
    2.000000000000e+00 0.000000000000e+00 4.656612873080e-09 1.000000000000e+01
    8.641800000000e+04 4.000000000000e+00                                      
09 25 04 21 00 00  0.0 6.368989124890e-04 1.102762325900e-11 0.000000000000e+00
    8.500000000000e+01-9.218750000000e+01 4.417684014270e-09 1.071052912080e+00
   -4.943460226060e-06 3.009018721060e-03 7.664784789090e-06 5.153732461930e+03
    8.640000000000e+04-7.450580596920e-09-1.797055144390e+00-5.401670932770e-08
    9.610770755520e-01 2.306875000000e+02 2.016481078330e+00-8.007476400680e-09
   -1.821504444400e-11 1.000000000000e+00 2.363000000000e+03 0.000000000000e+00
    2.000000000000e+00 0.000000000000e+00 4.656612873080e-10 8.500000000000e+01
    7.921800000000e+04 4.000000000000e+00                                      
09 25 04 21 02 00  0.0 6.369785405700e-04 1.102762325900e-11 0.000000000000e+00
    8.600000000000e+01-9.190625000000e+01 4.503044712740e-09 2.121423402870e+00
   -4.695728421210e-06 3.008552943360e-03 7.929280400280e-06 5.153731210710e+03
    9.360000000000e+04 3.166496753690e-08-1.797112718990e+00-5.215406417850e-08
    9.610770009430e-01 2.220312500000e+02 2.016256144430e+00-7.996047353180e-09
   -1.285767843110e-11 1.000000000000e+00 2.363000000000e+03 0.000000000000e+00
    2.000000000000e+00 0.000000000000e+00 4.656612873080e-10 8.600000000000e+01
    8.641800000000e+04 4.000000000000e+00                                      
14 25 04 21 02 00  0.0 6.337389349940e-04 5.798028723800e-12 0.000000000000e+00
    6.900000000000e+01 2.246875000000e+01 4.894132431690e-09-2.083383302050e+00
    1.106411218640e-06 5.652981111780e-03 7.292255759240e-06 5.153708494190e+03
    9.360000000000e+04-5.960464477540e-08 3.426383410170e-01-4.097819328310e-08
    9.441368499240e-01 2.313125000000e+02-2.829426846430e+00-8.042835016360e-09
   -6.571702309210e-11 1.000000000000e+00 2.363000000000e+03 0.000000000000e+00
    2.000000000000e+00 0.000000000000e+00-7.916241884230e-09 8.370000000000e+02
    8.893200000000e+04 4.000000000000e+00                                      
